{"type": "FeatureCollection", "features": [{"type": "Feature", "properties": {"NUTS_ID": "CZ010", "LEVL_CODE": 3, "CNTR_CODE": "CZ", "NAME_LATN": "Hlavní město Praha", "NUTS_NAME": "Hlavní město Praha", "MOUNT_TYPE": 4, "URBN_TYPE": 1, "COAST_TYPE": 3}, "geometry": {"type": "Polygon", "coordinates": [[[14.271791189000055, 50.097961292000036], [14.303311172000065, 50.12882304900006], [14.531597732000023, 50.17567666200006], [14.687079252000046, 50.082923245000075], [14.639686410000024, 49.99545549100003], [14.53004691800004, 50.01138694500003], [14.460472411000069, 49.97179114000005], [14.352195385000073, 49.95483864300007], [14.271815551000032, 50.040538894000065], [14.271791189000055, 50.097961292000036]]]}}, {"type": "Feature", "properties": {"NUTS_ID": "CZ020", "LEVL_CODE": 3, "CNTR_CODE": "CZ", "NAME_LATN": "Středočeský kraj", "NUTS_NAME": "Středočeský kraj", "MOUNT_TYPE": 4, "URBN_TYPE": 1, "COAST_TYPE": 3}, "geometry": {"type": "Polygon", "coordinates": [[[15.14677050000006, 50.52294249900007], [15.136091194000073, 50.463983778000056], [15.149477508000075, 50.34383866300004], [15.368130630000053, 50.27017364400007], [15.37108587800003, 50.15166597700005], [15.437586, 50.10985749900004], [15.409108012000047, 50.05296671600007], [15.514347073000067, 49.954475667000054], [15.496953, 49.861184499000046], [15.233356619000062, 49.74373454200003], [15.205879310000057, 49.61327741900004], [14.932018500000027, 49.549100999000075], [14.767382263000059, 49.620651750000036], [14.648730765000039, 49.525240395000026], [14.272228867000024, 49.55652345000004], [13.76559050000003, 49.513990499000045], [13.758071033000022, 49.61439142000006], [13.823631540000065, 49.706461131000026], [13.80017575900007, 49.918141339000044], [13.407053500000075, 50.08961699900004], [13.65677260800004, 50.22414153900007], [14.375079610000057, 50.39707601100008], [14.486485500000072, 50.50502699900005], [14.651195865000034, 50.486280244000056], [14.767382263000059, 50.55474948900007], [14.96995490200004, 50.60213737200007], [15.14677050000006, 50.52294249900007]], [[14.271791189000055, 50.097961292000036], [14.271815551000032, 50.040538894000065], [14.352195385000073, 49.95483864300007], [14.460472411000069, 49.97179114000005], [14.53004691800004, 50.01138694500003], [14.639686410000024, 49.99545549100003], [14.687079252000046, 50.082923245000075], [14.531597732000023, 50.17567666200006], [14.303311172000065, 50.12882304900006], [14.271791189000055, 50.097961292000036]]]}}, {"type": "Feature", "properties": {"NUTS_ID": "CZ031", "LEVL_CODE": 3, "CNTR_CODE": "CZ", "NAME_LATN": "Jihočeský kraj", "NUTS_NAME": "Jihočeský kraj", "MOUNT_TYPE": 4, "URBN_TYPE": 3, "COAST_TYPE": 3}, "geometry": {"type": "Polygon", "coordinates": [[[14.932018500000027, 49.549100999000075], [14.903574469000034, 49.38056203900004], [14.943672090000064, 49.31737490900008], [15.537175972000057, 49.103685444000064], [15.586756500000035, 48.947159499000065], [15.542449500000032, 48.90769699900005], [15.024387797000031, 49.00163129900005], [14.94017304700003, 48.79088894600005], [14.767382263000059, 48.71053998800005], [14.691014, 48.58430199900005], [14.487402430000031, 48.630012416000056], [14.343542636000052, 48.56312808900003], [14.112300538000056, 48.59387792200005], [13.839507, 48.77160499900003], [13.551578500000062, 48.96778749900005], [13.774701664000077, 49.36862887500007], [13.76559050000003, 49.513990499000045], [14.272228867000024, 49.55652345000004], [14.648730765000039, 49.525240395000026], [14.767382263000059, 49.620651750000036], [14.932018500000027, 49.549100999000075]]]}}, {"type": "Feature", "properties": {"NUTS_ID": "CZ032", "LEVL_CODE": 3, "CNTR_CODE": "CZ", "NAME_LATN": "Plzeňský kraj", "NUTS_NAME": "Plzeňský kraj", "MOUNT_TYPE": 4, "URBN_TYPE": 3, "COAST_TYPE": 3}, "geometry": {"type": "Polygon", "coordinates": [[[13.407053500000075, 50.08961699900004], [13.80017575900007, 49.918141339000044], [13.823631540000065, 49.706461131000026], [13.758071033000022, 49.61439142000006], [13.76559050000003, 49.513990499000045], [13.774701664000077, 49.36862887500007], [13.551578500000062, 48.96778749900005], [13.416651500000057, 48.98003549900005], [13.365593095000065, 49.067106254000066], [13.170908, 49.17357949900003], [12.984562468000036, 49.322802024000055], [12.792463181000073, 49.357913084000074], [12.633763500000043, 49.47619499900003], [12.63765965600004, 49.51946123100004], [12.593778500000042, 49.54219149900007], [12.401524, 49.75837299900007], [12.550988500000074, 49.905087999000045], [12.925041566000061, 49.93127425100005], [13.087943023000037, 50.020643334000056], [13.215621971000076, 50.014182291000054], [13.301367, 50.09964349900008], [13.407053500000075, 50.08961699900004]]]}}, {"type": "Feature", "properties": {"NUTS_ID": "CZ041", "LEVL_CODE": 3, "CNTR_CODE": "CZ", "NAME_LATN": "Karlovarský kraj", "NUTS_NAME": "Karlovarský kraj", "MOUNT_TYPE": 3, "URBN_TYPE": 2, "COAST_TYPE": 3}, "geometry": {"type": "Polygon", "coordinates": [[[12.160679, 50.21984899900008], [12.100900500000023, 50.31802799900004], [12.322304616000054, 50.207677197000066], [12.58377850000005, 50.40707899900008], [12.814980793000075, 50.44982022100004], [12.948144500000069, 50.40431149900007], [13.195858245000068, 50.33319729400006], [13.301367, 50.09964349900008], [13.215621971000076, 50.014182291000054], [13.087943023000037, 50.020643334000056], [12.925041566000061, 49.93127425100005], [12.550988500000074, 49.905087999000045], [12.260799, 50.05815649900006], [12.160679, 50.21984899900008]]]}}, {"type": "Feature", "properties": {"NUTS_ID": "CZ042", "LEVL_CODE": 3, "CNTR_CODE": "CZ", "NAME_LATN": "Ústecký kraj", "NUTS_NAME": "Ústecký kraj", "MOUNT_TYPE": 4, "URBN_TYPE": 2, "COAST_TYPE": 3}, "geometry": {"type": "Polygon", "coordinates": [[[14.491221, 51.04353049900004], [14.581976292000036, 50.981578256000034], [14.6188, 50.85780449900005], [14.377313443000048, 50.70042279300003], [14.38082356600006, 50.61580265900005], [14.486485500000072, 50.50502699900005], [14.375079610000057, 50.39707601100008], [13.65677260800004, 50.22414153900007], [13.407053500000075, 50.08961699900004], [13.301367, 50.09964349900008], [13.195858245000068, 50.33319729400006], [12.948144500000069, 50.40431149900007], [13.056368098000064, 50.50130451800004], [13.501846, 50.633642999000074], [13.652174, 50.73035999900003], [13.829705033000039, 50.732850273000054], [14.36330857400003, 50.903429636000055], [14.281860229000074, 50.99951617600004], [14.317873500000076, 51.05469899900004], [14.491221, 51.04353049900004]]]}}, {"type": "Feature", "properties": {"NUTS_ID": "CZ051", "LEVL_CODE": 3, "CNTR_CODE": "CZ", "NAME_LATN": "Liberecký kraj", "NUTS_NAME": "Liberecký kraj", "MOUNT_TYPE": 3, "URBN_TYPE": 2, "COAST_TYPE": 3}, "geometry": {"type": "Polygon", "coordinates": [[[15.242935954000075, 50.98354304600008], [15.376942270000029, 50.80168472300005], [15.535267500000032, 50.77937599900008], [15.58560682700005, 50.53752960300005], [15.391287098000078, 50.49330901500008], [15.14677050000006, 50.52294249900007], [14.96995490200004, 50.60213737200007], [14.767382263000059, 50.55474948900007], [14.651195865000034, 50.486280244000056], [14.486485500000072, 50.50502699900005], [14.38082356600006, 50.61580265900005], [14.377313443000048, 50.70042279300003], [14.6188, 50.85780449900005], [14.767382263000059, 50.81985103300008], [14.823362, 50.870550499000046], [14.97733071700003, 50.87812196200008], [15.062420796000026, 51.01062514200004], [15.242935954000075, 50.98354304600008]]]}}, {"type": "Feature", "properties": {"NUTS_ID": "CZ052", "LEVL_CODE": 3, "CNTR_CODE": "CZ", "NAME_LATN": "Královéhradecký kraj", "NUTS_NAME": "Královéhradecký kraj", "MOUNT_TYPE": 4, "URBN_TYPE": 2, "COAST_TYPE": 3}, "geometry": {"type": "Polygon", "coordinates": [[[16.107318, 50.66207299900003], [16.391873806000035, 50.603324118000046], [16.38797209200004, 50.543129735000036], [16.259126012000024, 50.45442123200007], [16.58029, 50.14278799900006], [16.478365651000047, 50.15397523300004], [16.224814201000072, 50.04462790200006], [15.94488416300004, 50.15763263200006], [15.437586, 50.10985749900004], [15.37108587800003, 50.15166597700005], [15.368130630000053, 50.27017364400007], [15.149477508000075, 50.34383866300004], [15.136091194000073, 50.463983778000056], [15.14677050000006, 50.52294249900007], [15.391287098000078, 50.49330901500008], [15.58560682700005, 50.53752960300005], [15.535267500000032, 50.77937599900008], [15.798259410000071, 50.74235859500004], [16.047915110000076, 50.63020808500005], [16.107318, 50.66207299900003]]]}}, {"type": "Feature", "properties": {"NUTS_ID": "CZ053", "LEVL_CODE": 3, "CNTR_CODE": "CZ", "NAME_LATN": "Pardubický kraj", "NUTS_NAME": "Pardubický kraj", "MOUNT_TYPE": 4, "URBN_TYPE": 3, "COAST_TYPE": 3}, "geometry": {"type": "Polygon", "coordinates": [[[16.8042, 49.598812999000074], [16.393627500000036, 49.580610499000045], [15.496953, 49.861184499000046], [15.514347073000067, 49.954475667000054], [15.409108012000047, 50.05296671600007], [15.437586, 50.10985749900004], [15.94488416300004, 50.15763263200006], [16.224814201000072, 50.04462790200006], [16.478365651000047, 50.15397523300004], [16.58029, 50.14278799900006], [16.714115958000036, 50.116167465000046], [16.86327, 50.19812299900008], [16.748420556000042, 49.96387200600003], [16.755130601000076, 49.82666959900007], [16.832265109000048, 49.70896798900003], [16.8042, 49.598812999000074]]]}}, {"type": "Feature", "properties": {"NUTS_ID": "CZ063", "LEVL_CODE": 3, "CNTR_CODE": "CZ", "NAME_LATN": "Kraj Vysočina", "NUTS_NAME": "Kraj Vysočina", "MOUNT_TYPE": 4, "URBN_TYPE": 3, "COAST_TYPE": 3}, "geometry": {"type": "Polygon", "coordinates": [[[16.393627500000036, 49.580610499000045], [16.39148569100007, 49.51658969200008], [16.243026980000025, 49.37879654100004], [16.251736923000067, 49.191677653000056], [16.186570948000053, 49.07113529800006], [15.586756500000035, 48.947159499000065], [15.537175972000057, 49.103685444000064], [14.943672090000064, 49.31737490900008], [14.903574469000034, 49.38056203900004], [14.932018500000027, 49.549100999000075], [15.205879310000057, 49.61327741900004], [15.233356619000062, 49.74373454200003], [15.496953, 49.861184499000046], [16.393627500000036, 49.580610499000045]]]}}, {"type": "Feature", "properties": {"NUTS_ID": "CZ064", "LEVL_CODE": 3, "CNTR_CODE": "CZ", "NAME_LATN": "Jihomoravský kraj", "NUTS_NAME": "Jihomoravský kraj", "MOUNT_TYPE": 4, "URBN_TYPE": 2, "COAST_TYPE": 3}, "geometry": {"type": "Polygon", "coordinates": [[[17.159901500000046, 49.27505749900007], [17.17248984500003, 49.095755902000064], [17.64693, 48.85426599900006], [17.39672550000006, 48.81334999900008], [17.172340853000037, 48.85478281200005], [16.940278, 48.617245499000035], [16.88364702800004, 48.70997065000006], [16.55961829100005, 48.805514490000064], [16.290087293000056, 48.73394945000007], [15.753633500000035, 48.85217849900005], [15.542449500000032, 48.90769699900005], [15.586756500000035, 48.947159499000065], [16.186570948000053, 49.07113529800006], [16.251736923000067, 49.191677653000056], [16.243026980000025, 49.37879654100004], [16.39148569100007, 49.51658969200008], [16.393627500000036, 49.580610499000045], [16.8042, 49.598812999000074], [16.84882049500004, 49.41259768300006], [16.938740770000038, 49.48072674100007], [17.159901500000046, 49.27505749900007]]]}}, {"type": "Feature", "properties": {"NUTS_ID": "CZ071", "LEVL_CODE": 3, "CNTR_CODE": "CZ", "NAME_LATN": "Olomoucký kraj", "NUTS_NAME": "Olomoucký kraj", "MOUNT_TYPE": 2, "URBN_TYPE": 2, "COAST_TYPE": 3}, "geometry": {"type": "Polygon", "coordinates": [[[17.429605, 50.25451299900004], [17.253521187000047, 50.13873242500006], [17.178616572000067, 49.86333834700008], [17.46289693500006, 49.83486524700004], [17.91685650000005, 49.53780849900005], [17.159901500000046, 49.27505749900007], [16.938740770000038, 49.48072674100007], [16.84882049500004, 49.41259768300006], [16.8042, 49.598812999000074], [16.832265109000048, 49.70896798900003], [16.755130601000076, 49.82666959900007], [16.748420556000042, 49.96387200600003], [16.86327, 50.19812299900008], [16.995293588000038, 50.268520842000044], [16.88712151800007, 50.40624949100004], [16.907924500000036, 50.44945399900007], [17.429605, 50.25451299900004]]]}}, {"type": "Feature", "properties": {"NUTS_ID": "CZ072", "LEVL_CODE": 3, "CNTR_CODE": "CZ", "NAME_LATN": "Zlínský kraj", "NUTS_NAME": "Zlínský kraj", "MOUNT_TYPE": 2, "URBN_TYPE": 2, "COAST_TYPE": 3}, "geometry": {"type": "Polygon", "coordinates": [[[18.270555998000077, 49.491554757000074], [18.40359550000005, 49.396745499000076], [18.322436, 49.31505899900003], [18.16977176000006, 49.26352139800008], [18.068522706000067, 49.04944438700005], [17.64693, 48.85426599900006], [17.17248984500003, 49.095755902000064], [17.159901500000046, 49.27505749900007], [17.91685650000005, 49.53780849900005], [18.270555998000077, 49.491554757000074]]]}}, {"type": "Feature", "properties": {"NUTS_ID": "CZ080", "LEVL_CODE": 3, "CNTR_CODE": "CZ", "NAME_LATN": "Moravskoslezský kraj", "NUTS_NAME": "Moravskoslezský kraj", "MOUNT_TYPE": 4, "URBN_TYPE": 2, "COAST_TYPE": 3}, "geometry": {"type": "Polygon", "coordinates": [[[18.035061, 50.06577199900005], [18.32693846500007, 49.92849747400004], [18.575724, 49.91042299900005], [18.615499818000046, 49.75034759000005], [18.801791811000044, 49.65874690800007], [18.851551, 49.51718899900004], [18.575361950000058, 49.49720612800007], [18.40359550000005, 49.396745499000076], [18.270555998000077, 49.491554757000074], [17.91685650000005, 49.53780849900005], [17.46289693500006, 49.83486524700004], [17.178616572000067, 49.86333834700008], [17.253521187000047, 50.13873242500006], [17.429605, 50.25451299900004], [17.72970100400005, 50.28539818300004], [17.73530257400006, 50.21247630900007], [17.65172024000003, 50.14034149300005], [17.84550292700004, 49.98936843400003], [18.035061, 50.06577199900005]]]}}]}